NANOSATC-BR1            
1 40024U 14033Q   24189.83831623  .00008710  00000+0  63768-3 0  9997
2 40024  98.0640 162.8064 0008786 100.3116 259.9099 15.03800425546878
QB50P1                  
1 40025U 14033R   24190.16453436  .00006970  00000+0  56298-3 0  9994
2 40025  98.0389 151.6085 0014941  93.9927 266.3003 15.00077301546531
QB50P2                  
1 40032U 14033Y   24189.41702614  .00006447  00000+0  53948-3 0  9991
2 40032  98.0071 142.4039 0012346  91.1823 269.0814 14.98766275545705
PERSEUS-M2              
1 40037U 14033AD  24189.76974696  .00002424  00000+0  25310-3 0  9998
2 40037  97.9271 120.6346 0014506 123.6052 236.6552 14.90594296545392
PERSEUS-M1              
1 40039U 14033AF  24190.06659352  .00002562  00000+0  26855-3 0  9992
2 40039  97.9069 116.9286 0014315 122.2410 238.0197 14.90376799545309
POLYITAN-1              
1 40042U 14033AJ  24189.46193998  .00010669  00000+0  79583-3 0  9990
2 40042  98.0686 154.5817 0014457  68.0527 292.2232 15.02978315545882
TIGRISAT                
1 40043U 14033AK  24189.50304566  .00002721  00000+0  36576-3 0  9996
2 40043  97.6971 351.3570 0054122 236.5242 123.0790 14.79060012540768
AEROCUBE 6A             
1 40045U 14033AM  24189.89923998  .00006435  00000+0  76657-3 0  9996
2 40045  97.6705   2.5632 0049659 212.2620 147.5555 14.83767093541106
AEROCUBE 6B             
1 40046U 14033AN  24189.45098947  .00005077  00000+0  59415-3 0  9990
2 40046  97.6671   0.8550 0048341 209.0235 150.8291 14.84641656540854
UKUBE-1                 
1 40074U 14037F   24189.76334098  .00007917  00000+0  74413-3 0  9999
2 40074  98.3432 120.9563 0004698  32.0913 328.0590 14.94206020541855
BRITE-PL2 (HEWELIUSZ)   
1 40119U 14049B   24189.31092363  .00002322  00000+0  25228-3 0  9994
2 40119  97.8847 288.8889 0014491 300.4169  59.5615 14.89015312535573
AEROCUBE 5C             
1 40965U 15058B   24190.17155676  .00002767  00000+0  26183-3 0  9991
2 40965  64.7711 297.2162 0191643 301.7883  56.4681 14.82984888260148
AEROCUBE 7              
1 40966U 15058C   24189.68786897  .00003619  00000+0  32574-3 0  9999
2 40966  64.7688 292.2779 0186471 301.5807  56.7214 14.84905843260172
FOX-1A (AO-85)          
1 40967U 15058D   24189.49852841  .00002803  00000+0  27002-3 0  9996
2 40967  64.7790 313.2199 0190889 297.7913  60.3957 14.82378900  8002
SINOD-D 1               
1 40968U 15058E   24189.77966757  .00003776  00000+0  34452-3 0  9997
2 40968  64.7791 304.9281 0185623 296.7013  61.5198 14.84419815 10874
SNAP-3 ALICE            
1 40970U 15058G   24189.54775035  .00012097  00000+0  83038-3 0  9992
2 40970  64.7702 261.7074 0156034 294.8210  63.6744 14.96876400  8834
LMRST-SAT               
1 40971U 15058H   24189.54163229  .00002797  00000+0  26885-3 0  9992
2 40971  64.7779 308.6202 0192044 299.1685  59.0325 14.82318490  8017
SNAP-3 EDDIE            
1 40972U 15058J   24189.48631100  .00010698  00000+0  72769-3 0  9995
2 40972  64.7679 255.2715 0156602 295.7983  62.7045 14.97215702 10927
PROPCUBE 3              
1 40973U 15058K   24189.67695424  .00003352  00000+0  30707-3 0  9991
2 40973  64.7725 295.8356 0188498 300.4814  57.7796 14.84153015  9071
BISONSAT                
1 40974U 15058L   24189.62468250  .00007446  00000+0  57215-3 0  9993
2 40974  64.7682 269.6257 0169860 298.1999  60.2048 14.91656068  8816
SNAP-3 JIMI             
1 40975U 15058M   24189.58622873  .00004886  00000+0  41371-3 0  9993
2 40975  64.7704 283.8694 0180570 299.4876  58.8327 14.87366601  8060
PROPCUBE 1 (FLORA)      
1 40976U 15058N   24189.55158384  .00002422  00000+0  24395-3 0  9993
2 40976  64.7772 324.1243 0190003 300.4011  57.8435 14.81183580 10813
SINOD-D 3               
1 40977U 15058P   24190.05308769  .00003465  00000+0  32901-3 0  9995
2 40977  64.7768 315.6991 0184705 299.4223  58.8559 14.83206816  9128
VELOX-II                
1 41171U 15077F   24189.35429456  .00448873  00000+0  14307-2 0  9996
2 41171  14.9837 249.1881 0004740 108.7148 251.3698 15.88674235474980
HORYU-4                 
1 41340U 16012D   24189.40792853  .00009709  00000+0  47330-3 0  9998
2 41340  31.0002 203.7640 0010261 179.9673 180.0969 15.16970864461229
RAVAN                   
1 41849U 16067B   24189.46236935  .00008245  00000+0  44989-3 0  9993
2 41849  98.0642   8.3489 0011968 323.0209  37.0195 15.14581244419052
CELTEE 1                
1 41850U 16067C   24189.95260749  .00006190  00000+0  41928-3 0  9996
2 41850  98.1039   0.5217 0001981 110.9902 249.1536 15.06875543418553
OPTICUBE 04             
1 41851U 16067D   24190.19291803  .00003069  00000+0  23278-3 0  9990
2 41851  98.0793 356.0129 0017455 351.0992   8.9920 15.02930657418395
AEROCUBE 8D             
1 41852U 16067E   24189.46046210  .00005720  00000+0  37468-3 0  9991
2 41852  98.1085 359.8090 0005769  51.8170 308.3576 15.08143178418458
AEROCUBE 8C             
1 41853U 16067F   24189.93907020  .00006751  00000+0  44174-3 0  9996
2 41853  98.0902 358.8410 0007071 337.4329  22.6586 15.08103924418517
PROMETHEUS 2-1          
1 41854U 16067G   24189.40635281  .00012834  00000+0  63817-3 0  9990
2 41854  98.0999   5.9714 0011699 352.1648   7.9400 15.17730569418804
