OBJECT_NAME,OBJECT_ID,EPOCH,MEAN_MOTION,ECCENTRICITY,INCLINATION,RA_OF_ASC_NODE,ARG_OF_PERICENTER,MEAN_ANOMALY,EPHEMERIS_TYPE,CLASSIFICATION_TYPE,NORAD_CAT_ID,ELEMENT_SET_NO,REV_AT_EPOCH,BSTAR,MEAN_MOTION_DOT,MEAN_MOTION_DDOT
NANOSATC-BR1,2014-033Q,2024-07-07T20:07:10.522272,15.03800425,.0008786,98.0640,162.8064,100.3116,259.9099,0,U,40024,999,54687,.63768E-3,.871E-4,0
QB50P1,2014-033R,2024-07-08T03:56:55.768704,15.00077301,.0014941,98.0389,151.6085,93.9927,266.3003,0,U,40025,999,54653,.56298E-3,.697E-4,0
QB50P2,2014-033Y,2024-07-07T10:00:31.058496,14.98766275,.0012346,98.0071,142.4039,91.1823,269.0814,0,U,40032,999,54570,.53948E-3,.6447E-4,0
PERSEUS-M2,2014-033AD,2024-07-07T18:28:26.137344,14.90594296,.0014506,97.9271,120.6346,123.6052,236.6552,0,U,40037,999,54539,.2531E-3,.2424E-4,0
PERSEUS-M1,2014-033AF,2024-07-08T01:35:53.680128,14.90376799,.0014315,97.9069,116.9286,122.2410,238.0197,0,U,40039,999,54530,.26855E-3,.2562E-4,0
POLYITAN-1,2014-033AJ,2024-07-07T11:05:11.614272,15.02978315,.0014457,98.0686,154.5817,68.0527,292.2232,0,U,40042,999,54588,.79583E-3,.10669E-3,0
TIGRISAT,2014-033AK,2024-07-07T12:04:23.145024,14.79060012,.0054122,97.6971,351.3570,236.5242,123.0790,0,U,40043,999,54076,.36576E-3,.2721E-4,0
AEROCUBE 6A,2014-033AM,2024-07-07T21:34:54.334272,14.83767093,.0049659,97.6705,2.5632,212.2620,147.5555,0,U,40045,999,54110,.76657E-3,.6435E-4,0
AEROCUBE 6B,2014-033AN,2024-07-07T10:49:25.490208,14.84641656,.0048341,97.6671,0.8550,209.0235,150.8291,0,U,40046,999,54085,.59415E-3,.5077E-4,0
UKUBE-1,2014-037F,2024-07-07T18:19:12.660672,14.94206020,.0004698,98.3432,120.9563,32.0913,328.0590,0,U,40074,999,54185,.74413E-3,.7917E-4,0
BRITE-PL2 (HEWELIUSZ),2014-049B,2024-07-07T07:27:43.801632,14.89015312,.0014491,97.8847,288.8889,300.4169,59.5615,0,U,40119,999,53557,.25228E-3,.2322E-4,0
AEROCUBE 5C,2015-058B,2024-07-08T04:07:02.504064,14.82984888,.0191643,64.7711,297.2162,301.7883,56.4681,0,U,40965,999,26014,.26183E-3,.2767E-4,0
AEROCUBE 7,2015-058C,2024-07-07T16:30:31.879008,14.84905843,.0186471,64.7688,292.2779,301.5807,56.7214,0,U,40966,999,26017,.32574E-3,.3619E-4,0
FOX-1A (AO-85),2015-058D,2024-07-07T11:57:52.854624,14.82378900,.0190889,64.7790,313.2199,297.7913,60.3957,0,U,40967,999,800,.27002E-3,.2803E-4,0
SINOD-D 1,2015-058E,2024-07-07T18:42:43.278048,14.84419815,.0185623,64.7791,304.9281,296.7013,61.5198,0,U,40968,999,1087,.34452E-3,.3776E-4,0
SNAP-3 ALICE,2015-058G,2024-07-07T13:08:45.630240,14.96876400,.0156034,64.7702,261.7074,294.8210,63.6744,0,U,40970,999,883,.83038E-3,.12097E-3,0
LMRST-SAT,2015-058H,2024-07-07T12:59:57.029856,14.82318490,.0192044,64.7779,308.6202,299.1685,59.0325,0,U,40971,999,801,.26885E-3,.2797E-4,0
SNAP-3 EDDIE,2015-058J,2024-07-07T11:40:17.270400,14.97215702,.0156602,64.7679,255.2715,295.7983,62.7045,0,U,40972,999,1092,.72769E-3,.10698E-3,0
PROPCUBE 3,2015-058K,2024-07-07T16:14:48.846336,14.84153015,.0188498,64.7725,295.8356,300.4814,57.7796,0,U,40973,999,907,.30707E-3,.3352E-4,0
BISONSAT,2015-058L,2024-07-07T14:59:32.568000,14.91656068,.016986,64.7682,269.6257,298.1999,60.2048,0,U,40974,999,881,.57215E-3,.7446E-4,0
SNAP-3 JIMI,2015-058M,2024-07-07T14:04:10.162272,14.87366601,.018057,64.7704,283.8694,299.4876,58.8327,0,U,40975,999,806,.41371E-3,.4886E-4,0
PROPCUBE 1 (FLORA),2015-058N,2024-07-07T13:14:16.843776,14.81183580,.0190003,64.7772,324.1243,300.4011,57.8435,0,U,40976,999,1081,.24395E-3,.2422E-4,0
SINOD-D 3,2015-058P,2024-07-08T01:16:26.776416,14.83206816,.0184705,64.7768,315.6991,299.4223,58.8559,0,U,40977,999,912,.32901E-3,.3465E-4,0
VELOX-II,2015-077F,2024-07-07T08:30:11.049984,15.88674235,.000474,14.9837,249.1881,108.7148,251.3698,0,U,41171,999,47498,.14307E-2,.448873E-2,0
HORYU-4,2016-012D,2024-07-07T09:47:25.024992,15.16970864,.0010261,31.0002,203.7640,179.9673,180.0969,0,U,41340,999,46122,.4733E-3,.9709E-4,0
RAVAN,2016-067B,2024-07-07T11:05:48.711840,15.14581244,.0011968,98.0642,8.3489,323.0209,37.0195,0,U,41849,999,41905,.44989E-3,.8245E-4,0
CELTEE 1,2016-067C,2024-07-07T22:51:45.287136,15.06875543,.0001981,98.1039,0.5217,110.9902,249.1536,0,U,41850,999,41855,.41928E-3,.619E-4,0
OPTICUBE 04,2016-067D,2024-07-08T04:37:48.117792,15.02930657,.0017455,98.0793,356.0129,351.0992,8.9920,0,U,41851,999,41839,.23278E-3,.3069E-4,0
AEROCUBE 8D,2016-067E,2024-07-07T11:03:03.925440,15.08143178,.0005769,98.1085,359.8090,51.8170,308.3576,0,U,41852,999,41845,.37468E-3,.572E-4,0
AEROCUBE 8C,2016-067F,2024-07-07T22:32:15.665280,15.08103924,.0007071,98.0902,358.8410,337.4329,22.6586,0,U,41853,999,41851,.44174E-3,.6751E-4,0
PROMETHEUS 2-1,2016-067G,2024-07-07T09:45:08.882784,15.17730569,.0011699,98.0999,5.9714,352.1648,7.9400,0,U,41854,999,41880,.63817E-3,.12834E-3,0
